NORAD_CAT_ID,OBJECT_NAME,OBJECT_TYPE,EPOCH,MEAN_MOTION,ECCENTRICITY,INCLINATION,RA_OF_ASC_NODE,ARG_OF_PERICENTER,MEAN_ANOMALY,BSTAR,MEAN_MOTION_DOT,MEAN_MOTION_DDOT,TLE_LINE0,TLE_LINE1,TLE_LINE2,SEMIMAJOR_AXIS,PERIOD,APOGEE,PERIGEE,DECAYED
52660.0,STARLINK-4081,PAYLOAD,2022-08-01 22:00:00,15.08869605,0.0001443,53.2142,300.8565,51.7524,67.5322,-0.0046366,-0.00073387,0.0,0 STARLINK-4081,1 52660U 22053E   22213.91667824 -.00073387  00000-0 -46366-2 0  9991,2 52660  53.2142 300.8565 0001443  51.7524  67.5322 15.08869605  1308,6917.79,95.436,540.653,538.6569999999998,0.0
52660.0,STARLINK-4081,PAYLOAD,2022-08-02 14:00:01,15.08819829,0.0001601,53.2141,297.8646,51.3301,91.1388,0.00075896,0.00011805,0.0,0 STARLINK-4081,1 52660U 22053E   22214.58334491  .00011805  00000-0  75896-3 0  9992,2 52660  53.2141 297.8646 0001601  51.3301  91.1388 15.08819829 12576,6917.941999999999,95.439,540.915,538.6990000000002,0.0
52660.0,STARLINK-4081,PAYLOAD,2022-08-03 14:00:01,15.08828216,0.0001679,53.2141,293.3751,49.5497,127.6889,0.0014280999999999,0.00022506,0.0,0 STARLINK-4081,1 52660U 22053E   22215.58334491  .00022506  00000-0  14281-2 0  9993,2 52660  53.2141 293.3751 0001679  49.5497 127.6889 15.08828216  1304,6917.916,95.438,540.943,538.62,0.0
52660.0,STARLINK-4081,PAYLOAD,2022-08-03 20:00:01,15.08859872,0.0001628,53.214,292.2518,48.9298,46.9972,-0.0016432999999999,-0.0002636,0.0,0 STARLINK-4081,1 52660U 22053E   22215.83334491 -.00026360  00000-0 -16433-2 0  9996,2 52660  53.2140 292.2518 0001628  48.9298  46.9972 15.08859872 12768,6917.82,95.436,540.811,538.558,0.0
52660.0,STARLINK-4081,PAYLOAD,2022-08-03 22:00:01,15.08857867,0.0001571999999999,53.2142,291.8771,51.3132,137.5793,-0.0015557,-0.00024974,0.0,0 STARLINK-4081,1 52660U 22053E   22215.91668981 -.00024974  00000-0 -15557-2 0  9994,2 52660  53.2142 291.8771 0001572  51.3132 137.5793 15.08857867  1307,6917.826,95.436,540.778,538.6030000000002,0.0
52660.0,STARLINK-4081,PAYLOAD,2022-08-04 12:00:00,15.08837062,0.0001791,53.2143,289.2592,52.1929,66.9539,-0.0014085,-0.00022633,0.0,0 STARLINK-4081,1 52660U 22053E   22216.50001157 -.00022633  00000-0 -14085-2 0  9991,2 52660  53.2143 289.2592 0001791  52.1929  66.9539 15.08837062 12867,6917.889,95.438,540.993,538.515,0.0
52660.0,STARLINK-4081,PAYLOAD,2022-08-04 14:00:01,15.08810992,0.0001841999999999,53.2145,288.8854,50.9608,161.0898,0.0019434,0.00030752,0.0,0 STARLINK-4081,1 52660U 22053E   22216.58334491  .00030752  00000-0  19434-2 0  9991,2 52660  53.2145 288.8854 0001842  50.9608 161.0898 15.08810992  1307,6917.969,95.439,541.1080000000002,538.56,0.0
52660.0,STARLINK-4081,PAYLOAD,2022-08-04 22:00:00,15.08841316,0.0001703,53.2146,287.3874,53.4914,170.1332,-0.0012801,-0.00020604,0.0,0 STARLINK-4081,1 52660U 22053E   22216.91667824 -.00020604  00000-0 -12801-2 0  9995,2 52660  53.2146 287.3874 0001703  53.4914 170.1332 15.08841316  1306,6917.876,95.437,540.919,538.563,0.0
52660.0,STARLINK-4081,PAYLOAD,2022-08-05 04:00:00,15.08827021,0.0001691,53.2148,286.2644,58.3832,83.9325,0.0017017,0.00026889,0.0,0 STARLINK-4081,1 52660U 22053E   22217.16667824  .00026889  00000-0  17017-2 0  9996,2 52660  53.2148 286.2644 0001691  58.3832  83.9325 15.08827021 12964,6917.92,95.438,540.955,538.615,0.0
52660.0,STARLINK-4081,PAYLOAD,2022-08-05 14:00:01,15.08821733,0.0001876999999999,53.2149,284.3958,50.6734,196.2015,0.0022936,0.00036385,0.0,0 STARLINK-4081,1 52660U 22053E   22217.58335648  .00036385  00000-0  22936-2 0  9996,2 52660  53.2149 284.3958 0001877  50.6734 196.2015 15.08821733  1308,6917.936,95.439,541.1,538.503,0.0
52660.0,STARLINK-4081,PAYLOAD,2022-08-05 20:00:01,15.08859865,0.0001769,53.2147,283.2724,52.1048,113.4562,-0.0019623,-0.000314,0.0,0 STARLINK-4081,1 52660U 22053E   22217.83335648 -.00031400  00000-0 -19623-2 0  9998,2 52660  53.2147 283.2724 0001769  52.1048 113.4562 15.08859865 13061,6917.82,95.436,540.908,538.461,0.0
52660.0,STARLINK-4081,PAYLOAD,2022-08-05 22:00:00,15.08849901,0.0001706999999999,53.215,282.8978,53.578,204.8247,-0.0008583999999999,-0.00013927,0.0,0 STARLINK-4081,1 52660U 22053E   22217.91667824 -.00013927  00000-0 -85840-3 0  9990,2 52660  53.2150 282.8978 0001707  53.5780 204.8247 15.08849901  1300,6917.85,95.437,540.896,538.534,0.0
52660.0,STARLINK-4081,PAYLOAD,2022-08-06 11:10:02,15.0884581,0.0001715,53.2151,280.4351,54.1091,306.006,1.8373e-06,-2.59e-06,0.0,0 STARLINK-4081,1 52660U 22053E   22218.46530704 -.00000259  00000-0  18373-5 0  9999,2 52660  53.2151 280.4351 0001715  54.1091 306.0060 15.08845810 13161,6917.863,95.437,540.914,538.5409999999998,0.0
52660.0,STARLINK-4081,PAYLOAD,2022-08-06 14:00:01,15.08804255,0.0001771,53.215,279.9064,48.2266,233.3854,0.0024321,0.00038593,0.0,0 STARLINK-4081,1 52660U 22053E   22218.58334491  .00038593  00000-0  24321-2 0  9995,2 52660  53.2150 279.9064 0001771  48.2266 233.3854 15.08804255  1308,6917.99,95.44,541.08,538.629,0.0
52660.0,STARLINK-4081,PAYLOAD,2022-08-06 20:00:01,15.08843441,0.0001648,53.2148,278.7829,50.2998,149.9835,-0.0020645,-0.00032998,0.0,0 STARLINK-4081,1 52660U 22053E   22218.83334491 -.00032998  00000-0 -20645-2 0  9993,2 52660  53.2148 278.7829 0001648  50.2998 149.9835 15.08843441 13213,6917.87,95.437,540.875,538.595,0.0
52660.0,STARLINK-4081,PAYLOAD,2022-08-06 22:00:00,15.08828568,0.0001597,53.215,278.4085,52.0275,241.157,-0.0003259999999999,-5.471e-05,0.0,0 STARLINK-4081,1 52660U 22053E   22218.91667824 -.00005471  00000-0 -32600-3 0  9992,2 52660  53.2150 278.4085 0001597  52.0275 241.1570 15.08828568  1309,6917.915,95.438,540.885,538.6759999999998,0.0
52660.0,STARLINK-4081,PAYLOAD,2022-08-07 11:00:50,15.08832671,0.0001641,53.2152,275.9747,58.7208,301.3944,3.7066e-07,-2.82e-06,0.0,0 STARLINK-4081,1 52660U 22053E   22219.45891978 -.00000282  00000-0  37066-6 0  9999,2 52660  53.2152 275.9747 0001641  58.7208 301.3944 15.08832671 13315,6917.903,95.438,540.903,538.633,0.0
52660.0,STARLINK-4081,PAYLOAD,2022-08-07 12:00:00,15.08824473,0.0001742,53.2148,275.7913,49.6412,173.8144,0.00067597,0.00010482,0.0,0 STARLINK-4081,1 52660U 22053E   22219.50001157  .00010482  00000-0  67597-3 0  9998,2 52660  53.2148 275.7913 0001742  49.6412 173.8144 15.08824473 13316,6917.928000000001,95.439,540.998,538.5880000000002,0.0
52660.0,STARLINK-4081,PAYLOAD,2022-08-07 22:00:00,15.08833749,0.0001588999999999,53.2146,273.9193,53.3407,274.6013,0.00036827,5.577e-05,0.0,0 STARLINK-4081,1 52660U 22053E   22219.91667824  .00005577  00000-0  36827-3 0  9993,2 52660  53.2146 273.9193 0001589  53.3407 274.6013 15.08833749  1306,6917.899,95.438,540.864,538.665,0.0
52660.0,STARLINK-4081,PAYLOAD,2022-08-08 14:00:01,15.08838504,0.0001769,53.2141,270.9282,49.5845,301.6278,0.0018268,0.00028904,0.0,0 STARLINK-4081,1 52660U 22053E   22220.58335648  .00028904  00000-0  18268-2 0  9991,2 52660  53.2141 270.9282 0001769  49.5845 301.6278 15.08838504 13479,6917.885,95.438,540.974,538.526,0.0
52660.0,STARLINK-4081,PAYLOAD,2022-08-08 22:00:00,15.08836203,0.0001681,53.2139,269.4301,56.0834,306.685,0.00016574,2.35e-05,0.0,0 STARLINK-4081,1 52660U 22053E   22220.91667824  .00002350  00000-0  16574-3 0  9998,2 52660  53.2139 269.4301 0001681  56.0834 306.6850 15.08836203  1309,6917.892,95.438,540.92,538.594,0.0
52660.0,STARLINK-4081,PAYLOAD,2022-08-09 04:00:00,15.08841849,0.0001712,53.2138,268.3078,59.7278,221.7261,0.00052497,8.077e-05,0.0,0 STARLINK-4081,1 52660U 22053E   22221.16667824  .00008077  00000-0  52497-3 0  9992,2 52660  53.2138 268.3078 0001712  59.7278 221.7261 15.08841849 13560,6917.875,95.437,540.924,538.555,0.0
52660.0,STARLINK-4081,PAYLOAD,2022-08-09 14:00:01,15.08821391,0.0001807,53.2135,266.4391,49.7889,336.1667,0.00032397,4.869e-05,0.0,0 STARLINK-4081,1 52660U 22053E   22221.58334491  .00004869  00000-0  32397-3 0  9991,2 52660  53.2135 266.4391 0001807  49.7889 336.1667 15.08821391  1306,6917.937,95.439,541.052,538.552,0.0
52660.0,STARLINK-4081,PAYLOAD,2022-08-09 20:00:01,15.0882741,0.0001686,53.2133,265.3154,52.0869,252.5509,-0.0014456,-0.00023213,0.0,0 STARLINK-4081,1 52660U 22053E   22221.83334491 -.00023213  00000-0 -14456-2 0  9990,2 52660  53.2133 265.3154 0001686  52.0869 252.5509 15.08827410 13665,6917.919,95.438,540.95,538.618,0.0
52660.0,STARLINK-4081,PAYLOAD,2022-08-09 22:00:00,15.08804532,0.0001634,53.2133,264.941,54.2629,343.275,0.0015208,0.00023975,0.0,0 STARLINK-4081,1 52660U 22053E   22221.91667824  .00023975  00000-0  15208-2 0  9997,2 52660  53.2133 264.9410 0001634  54.2629 343.2750 15.08804532  1300,6917.989000000001,95.44,540.984,538.7230000000002,0.0
52660.0,STARLINK-4081,PAYLOAD,2022-08-10 14:00:01,15.08808271,0.0001846,53.213,261.9499,48.2205,12.4648,0.002744,0.00043616,0.0,0 STARLINK-4081,1 52660U 22053E   22222.58334491  .00043616  00000-0  27440-2 0  9997,2 52660  53.2130 261.9499 0001846  48.2205  12.4648 15.08808271 13789,6917.977,95.44,541.119,538.565,0.0
52660.0,STARLINK-4081,PAYLOAD,2022-08-10 22:00:00,15.08812993,0.0001701,53.213,260.4516,53.4748,18.7914,0.0018294,0.00028925,0.0,0 STARLINK-4081,1 52660U 22053E   22222.91667824  .00028925  00000-0  18294-2 0  9996,2 52660  53.2130 260.4516 0001701  53.4748  18.7914 15.08812993  1309,6917.9630000000025,95.439,541.005,538.651,0.0
52660.0,STARLINK-4081,PAYLOAD,2022-08-11 04:00:00,15.08843603,0.0001771999999999,53.2131,259.3294,55.7098,295.2316,-0.00040148,-6.673e-05,0.0,0 STARLINK-4081,1 52660U 22053E   22223.16667824 -.00006673  00000-0 -40148-3 0  9996,2 52660  53.2131 259.3294 0001772  55.7098 295.2316 15.08843603 13865,6917.869000000002,95.437,540.96,538.509,0.0
52660.0,STARLINK-4081,PAYLOAD,2022-08-11 14:00:01,15.0882061,0.0001936,53.2128,257.4604,47.7909,47.6463,0.0024148,0.00038333,0.0,0 STARLINK-4081,1 52660U 22053E   22223.58334491  .00038333  00000-0  24148-2 0  9990,2 52660  53.2128 257.4604 0001936  47.7909  47.6463 15.08820610  1300,6917.94,95.439,541.144,538.465,0.0
